LAPAN-A3                
1 41603U 16040E   23226.08866271  .00002525  00000+0  11066-3 0  9998
2 41603  97.1642 248.9811 0014406 109.7441 250.5351 15.22775980396307
BIROS                   
1 41604U 16040F   23225.65836613  .00007322  00000+0  25240-3 0  9997
2 41604  97.1605 259.2324 0012054  78.2782 281.9812 15.30217682396888
SWAYAM                  
1 41607U 16040J   23225.64854656  .01712343  24189-2  16413-2 0  9991
2 41607  97.1206 278.6879 0008357 248.0941 111.9456 16.12343321398095
BEESAT-4                
1 41619U 16040W   23226.10875322  .00188117  00000+0  12132-2 0  9991
2 41619  97.1472 276.7169 0001456 141.7190 218.4179 15.75593224385944
3CAT-2                  
1 41732U 16051B   23225.76161654  .00055050  00000+0  69578-3 0  9992
2 41732  97.3894 159.6035 0007773 165.4109 194.7373 15.59337456390439
PRATHAM                 
1 41783U 16059A   23226.04876014  .00000750  00000+0  15065-3 0  9990
2 41783  97.8664 254.5828 0031471 277.6139  82.1490 14.64069561367440
ALSAT 1N                
1 41789U 16059G   23226.04710660  .00000929  00000+0  17900-3 0  9998
2 41789  97.8650 260.0956 0026294 256.5728 103.2545 14.65554839367749
CARTOSAT-2D             
1 41948U 17008A   23226.14254307  .00005428  00000+0  26044-3 0  9990
2 41948  97.4732 284.6859 0004353 282.8844  77.1904 15.19289000359979
ZHUHAI-1 02 (CAS-4B)    
1 42759U 17034B   23226.09556833  .00008490  00000+0  41531-3 0  9993
2 42759  43.0149 153.5266 0009651 120.4453 239.7350 15.18436272340430
ZHUHAI-1 01 (CAS-4A)    
1 42761U 17034D   23226.11161076  .00009023  00000+0  44045-3 0  9996
2 42761  43.0135 151.9625 0010502 121.1950 238.9929 15.18444351340447
UCLSAT                  
1 42765U 17036A   23226.04799900  .00067196  00000+0  85995-3 0  9991
2 42765  97.1356 264.8797 0005242 199.5747 160.5310 15.58977439342288
NIUSAT                  
1 42766U 17036B   23226.05389644  .00028342  00000+0  64983-3 0  9997
2 42766  97.1531 256.1714 0007571 238.9221 121.1284 15.42679401341529
CARTOSAT-2E             
1 42767U 17036C   23226.09266790  .00005424  00000+0  25987-3 0  9995
2 42767  97.4003 284.5498 0006144 353.8462   6.2696 15.19327254340530
AALTO-1                 
1 42775U 17036L   23226.02845333  .00019149  00000+0  51749-3 0  9997
2 42775  97.1491 254.4756 0007410 247.2034 112.8429 15.37748765341407
URSA MAIOR              
1 42776U 17036M   23226.07631580  .00022310  00000+0  55812-3 0  9999
2 42776  97.1495 256.0489 0007154 239.9435 120.1103 15.40093711341499
MAX VALIER SAT          
1 42778U 17036P   23226.05044654  .00024444  00000+0  57827-3 0  9997
2 42778  97.1498 259.6256 0005870 235.1254 124.9442 15.41779187341638
PEGASUS                 
1 42784U 17036V   23226.12825260  .00049512  00000+0  80085-3 0  9997
2 42784  97.1424 263.0307 0005539 210.8688 149.2241 15.52670175341954
SUCHAI                  
1 42788U 17036Z   23225.66302587  .00145378  00000+0  12058-2 0  9992
2 42788  97.1362 267.4338 0006105 199.8256 160.2771 15.69739474342271
SKCUBE                  
1 42789U 17036AA  23225.87864607  .00079207  00000+0  97992-3 0  9990
2 42789  97.1376 265.4319 0005928 203.0705 157.0287 15.59825142342085
ROBUSTA 1B              
1 42792U 17036AD  23225.86376775  .00115594  00000+0  11203-2 0  9997
2 42792  97.1355 267.0484 0005631 193.9122 166.1984 15.65989123342204
D-SAT                   
1 42794U 17036AF  23225.72855921  .00005538  00000+0  43189-3 0  9994
2 42794  97.4679 215.1369 0117722 107.9748 253.4347 14.96160304334566
NORSAT 2                
1 42828U 17042D   23225.50972249  .00004919  00000+0  43910-3 0  9992
2 42828  97.3920  63.0787 0013848  33.9802 326.2305 14.96298670331174
TECHNOSAT               
1 42829U 17042E   23226.06554902  .00002277  00000+0  21850-3 0  9991
2 42829  97.3872  60.0534 0014138  36.4533 323.7647 14.93935273331131
2017-042F               
1 42830U 17042F   23226.03509002  .00011442  00000+0  83651-3 0  9992
2 42830  97.4061  68.7325 0011092 354.1489   5.9606 15.03728746331561
FLYING LAPTOP           
1 42831U 17042G   23225.51894244  .00001336  00000+0  13237-3 0  9994
2 42831  97.3897  59.8072 0014436  39.3659 320.8608 14.93285656331044
CORVUS BC2              
1 42846U 17042X   23225.02470338  .00002883  00000+0  26813-3 0  9992
2 42846  97.3839  62.8833 0009528  31.2577 328.9210 14.95028117331217
CORVUS BC1              
1 42847U 17042Y   23225.54779592  .00002488  00000+0  23154-3 0  9990
2 42847  97.3833  63.7376 0009124  27.6473 332.5232 14.95125094331307
CZ-4C R/B               
1 43012U 17072C   23225.75153709  .00000630  00000+0  13712-3 0  9993
2 43012  98.6429 283.7533 0127514 104.6326 256.9048 14.56811351305336
RADFXSAT (FOX-1B)       
1 43017U 17073E   23225.93805445  .00004570  00000+0  31950-3 0  9991
2 43017  97.6221 108.0102 0229220 238.2300 119.6404 14.86954826309764
EAGLESAT 1              
1 43018U 17073F   23225.64336638  .00009706  00000+0  60517-3 0  9990
2 43018  97.6287 112.1860 0209193 224.7712 133.6462 14.93318277309861
INS-1C                  
1 43116U 18004F   23225.95521498  .00076469  00000+0  95926-3 0  9990
2 43116  97.3340 309.0620 0004281 252.7006 107.3783 15.59477805311353
FLOCK 3P'-4             
1 43122U 18004M   23225.71118827  .01460613  14174-2  18062-2 0  9993
2 43122  97.3241 306.9620 0016550 287.6470  72.3005 16.07911541311194
PICSAT                  
1 43132U 18004X   23225.75793024  .00148927  00000+0  11778-2 0  9993
2 43132  97.3210 311.1654 0005114 241.4655 118.6093 15.70886059311547
CNUSAIL-1               
1 43133U 18004Y   23225.16843182  .00034211  00000+0  68525-3 0  9993
2 43133  97.3248 303.1981 0004389 286.7056  73.3712 15.46658459310990
2018-004Z               
1 43134U 18004Z   23225.22497839  .00070918  00000+0  91513-3 0  9992
2 43134  97.3262 307.6083 0004200 255.9540 104.1250 15.58748423311262
FOX-1D (AO-92)          
1 43137U 18004AC  23225.78604464  .00041092  00000+0  71620-3 0  9998
2 43137  97.3252 305.7745 0003742 277.7089  82.3738 15.50620828311211
XIAOXIANG-2             
1 43155U 18008A   23226.12645909  .00019240  00000+0  70688-3 0  9993
2 43155  97.2941 277.3275 0014106 105.4845 254.7954 15.27862062307492
ZHOU ENLAI              
1 43156U 18008B   23226.10959692  .00020860  00000+0  74746-3 0  9998
2 43156  97.2988 277.5241 0011614 106.7213 253.5303 15.28699015307428
QUANTUTONG 1            
1 43158U 18008D   23226.11347798  .00015953  00000+0  64252-3 0  9997
2 43158  97.3004 274.1735 0012067 110.2041 250.0496 15.24871402307246
S-NET D                 
1 43186U 18014G   23225.99347487  .00003670  00000+0  29243-3 0  9999
2 43186  97.6197 128.6892 0015008 347.6890  12.3965 15.00884976302223
S-NET B                 
1 43187U 18014H   23225.99482366  .00003703  00000+0  29494-3 0  9991
2 43187  97.6194 128.6156 0015586 345.4704  14.6069 15.00880452302220
S-NET A                 
1 43188U 18014J   23225.99484539  .00003670  00000+0  29234-3 0  9991
2 43188  97.6201 128.7076 0015531 345.5614  14.5164 15.00882863302226
S-NET C                 
1 43189U 18014K   23225.99742938  .00003729  00000+0  29695-3 0  9998
2 43189  97.6203 128.5955 0016406 340.8622  19.1984 15.00876673300773
LUOJIA-1 01             
1 43485U 18048B   23226.09908990  .00002012  00000+0  27821-3 0  9991
2 43485  97.9042 305.2197 0009387 272.4306  87.5830 14.79148822280293
CZ-4B R/B               
1 43656U 18081B   23226.05802741  .00000162  00000+0  66444-4 0  9990
2 43656  99.4510  40.5038 0207502  11.3576 349.2184 14.30896427250780
CUBEBEL-1 (BSUSAT-1)    
1 43666U 18083E   23226.09779100  .00034257  00000+0  80005-3 0  9999
2 43666  97.3764 258.1853 0006391 260.7253  99.3271 15.42098906266110
CHANGSHAGAOXIN (TY 4-01)
1 43669U 18083H   23226.08343850  .00027883  00000+0  75147-3 0  9998
2 43669  97.3762 252.4553 0004416 262.5033  97.5710 15.37778587265837
TEN-KOH                 
1 43677U 18084G   23225.71157924  .00002118  00000+0  20747-3 0  9992
2 43677  98.0204   6.6900 0014209 322.2600  37.7621 14.93344509260640
DIWATA-2B               
1 43678U 18084H   23226.07383903  .00001714  00000+0  16794-3 0  9999
2 43678  98.0305  11.2412 0008896 337.8965  22.1869 14.93630284260903
STARS-AO                
1 43679U 18084J   23225.68252506  .00004548  00000+0  39650-3 0  9994
2 43679  98.0294  14.4367 0007351 337.0028  23.0863 14.97380533261034
AUTCUBE 2               
1 43681U 18084K   23225.36477559  .00004251  00000+0  38444-3 0  9990
2 43681  98.0275  11.9298 0007844 338.5185  21.5705 14.95974188260858
METOP-C                 
1 43689U 18087A   23226.12169235  .00000139  00000+0  83669-4 0  9996
2 43689  98.6793 284.6823 0001735 243.9561 116.1438 14.21456914247355
ES'HAIL 2               
1 43700U 18090A   23226.06278692  .00000136  00000+0  00000+0 0  9995
2 43700   0.0192 103.9241 0002277  79.4645 187.2297  1.00272458 17510
REAKTOR HELLO WORLD     
1 43743U 18096AA  23225.24756010  .00099653  00000+0  89789-3 0  9999
2 43743  97.3140 314.2254 0006402 309.5845  50.4850 15.67849695263085
ELYSIUM STAR 2 & LFF    
1 43760U 18099C   23226.07655571  .00013515  00000+0  88081-3 0  9990
2 43760  97.5633 291.0104 0007468 258.8143 101.2245 15.08006188256575
2018-099D               
1 43761U 18099D   23225.45884476  .00002853  00000+0  24704-3 0  9995
2 43761  97.5710 285.0056 0011648 296.0482  63.9541 14.97869464256143
AISTECHSAT 2            
1 43768U 18099L   23225.12653872  .00003806  00000+0  31948-3 0  9997
2 43768  97.5667 283.1553 0008402 299.0469  60.9912 14.98896098255775
FOX-1CLIFF (AO-95)      
1 43770U 18099N   23226.05592409  .00005637  00000+0  45137-3 0  9990
2 43770  97.5738 286.0381 0013280 318.5743  41.4473 15.00485710256282
RANGE-A                 
1 43772U 18099Q   23225.12504221  .00007712  00000+0  58675-3 0  9991
2 43772  97.5704 288.0646 0006016 244.2245 115.8359 15.02371744256219
